CCSDS_OMM_VERS = 2.0
CREATION_DATE  = 
ORIGINATOR     = 

OBJECT_NAME    = STARLINK-35964
OBJECT_ID      = 2025-278F
CENTER_NAME    = EARTH
REF_FRAME      = TEME
TIME_SYSTEM    = UTC
MEAN_ELEMENT_THEORY = SGP/SGP4

EPOCH          = 2025-12-10T12:00:02.999808
MEAN_MOTION    = 16.06931937
ECCENTRICITY   = .0002154
INCLINATION    = 42.9968
RA_OF_ASC_NODE = 265.4876
ARG_OF_PERICENTER = 266.1916
MEAN_ANOMALY   = 92.8735

EPHEMERIS_TYPE = 0
CLASSIFICATION_TYPE = U
NORAD_CAT_ID   = 66796
ELEMENT_SET_NO = 999
REV_AT_EPOCH   = 243
BSTAR          = -.15785777E-2
MEAN_MOTION_DOT = -.1274001E-1
MEAN_MOTION_DDOT = .55193252E-3

CCSDS_OMM_VERS = 2.0
CREATION_DATE  = 
ORIGINATOR     = 

OBJECT_NAME    = STARLINK-36099
OBJECT_ID      = 2025-278G
CENTER_NAME    = EARTH
REF_FRAME      = TEME
TIME_SYSTEM    = UTC
MEAN_ELEMENT_THEORY = SGP/SGP4

EPOCH          = 2025-12-10T12:00:02.999808
MEAN_MOTION    = 15.92615926
ECCENTRICITY   = .00019345
INCLINATION    = 42.9988
RA_OF_ASC_NODE = 265.9843
ARG_OF_PERICENTER = 265.3236
MEAN_ANOMALY   = 259.0392

EPHEMERIS_TYPE = 0
CLASSIFICATION_TYPE = U
NORAD_CAT_ID   = 66797
ELEMENT_SET_NO = 999
REV_AT_EPOCH   = 265
BSTAR          = -.36510482E-2
MEAN_MOTION_DOT = -.1295106E-1
MEAN_MOTION_DDOT = .48770519E-3

CCSDS_OMM_VERS = 2.0
CREATION_DATE  = 
ORIGINATOR     = 

OBJECT_NAME    = STARLINK-36041
OBJECT_ID      = 2025-278H
CENTER_NAME    = EARTH
REF_FRAME      = TEME
TIME_SYSTEM    = UTC
MEAN_ELEMENT_THEORY = SGP/SGP4

EPOCH          = 2025-12-10T12:00:02.999808
MEAN_MOTION    = 15.92665669
ECCENTRICITY   = .00018658
INCLINATION    = 42.9988
RA_OF_ASC_NODE = 265.9797
ARG_OF_PERICENTER = 262.6359
MEAN_ANOMALY   = 263.5435

EPHEMERIS_TYPE = 0
CLASSIFICATION_TYPE = U
NORAD_CAT_ID   = 66798
ELEMENT_SET_NO = 999
REV_AT_EPOCH   = 243
BSTAR          = -.36764343E-2
MEAN_MOTION_DOT = -.1307366E-1
MEAN_MOTION_DDOT = .49642953E-3

CCSDS_OMM_VERS = 2.0
CREATION_DATE  = 
ORIGINATOR     = 

OBJECT_NAME    = STARLINK-36044
OBJECT_ID      = 2025-278J
CENTER_NAME    = EARTH
REF_FRAME      = TEME
TIME_SYSTEM    = UTC
MEAN_ELEMENT_THEORY = SGP/SGP4

EPOCH          = 2025-12-10T12:00:02.999808
MEAN_MOTION    = 15.92706098
ECCENTRICITY   = .00019188
INCLINATION    = 42.9987
RA_OF_ASC_NODE = 265.9746
ARG_OF_PERICENTER = 266.1993
MEAN_ANOMALY   = 262.0507

EPHEMERIS_TYPE = 0
CLASSIFICATION_TYPE = U
NORAD_CAT_ID   = 66799
ELEMENT_SET_NO = 999
REV_AT_EPOCH   = 259
BSTAR          = -.36432455E-2
MEAN_MOTION_DOT = -.1298426E-1
MEAN_MOTION_DDOT = .49042595E-3

CCSDS_OMM_VERS = 2.0
CREATION_DATE  = 
ORIGINATOR     = 

OBJECT_NAME    = STARLINK-35996
OBJECT_ID      = 2025-278K
CENTER_NAME    = EARTH
REF_FRAME      = TEME
TIME_SYSTEM    = UTC
MEAN_ELEMENT_THEORY = SGP/SGP4

EPOCH          = 2025-12-10T12:00:02.999808
MEAN_MOTION    = 15.92809346
ECCENTRICITY   = .00019277
INCLINATION    = 42.9985
RA_OF_ASC_NODE = 265.9639
ARG_OF_PERICENTER = 268.0121
MEAN_ANOMALY   = 264.3563

EPHEMERIS_TYPE = 0
CLASSIFICATION_TYPE = U
NORAD_CAT_ID   = 66800
ELEMENT_SET_NO = 999
REV_AT_EPOCH   = 238
BSTAR          = -.36820454E-2
MEAN_MOTION_DOT = -.131916E-1
MEAN_MOTION_DDOT = .5053644E-3

CCSDS_OMM_VERS = 2.0
CREATION_DATE  = 
ORIGINATOR     = 

OBJECT_NAME    = STARLINK-36080
OBJECT_ID      = 2025-278L
CENTER_NAME    = EARTH
REF_FRAME      = TEME
TIME_SYSTEM    = UTC
MEAN_ELEMENT_THEORY = SGP/SGP4

EPOCH          = 2025-12-10T12:00:02.999808
MEAN_MOTION    = 15.93061030
ECCENTRICITY   = .00019629
INCLINATION    = 42.9984
RA_OF_ASC_NODE = 265.9376
ARG_OF_PERICENTER = 266.0065
MEAN_ANOMALY   = 276.6526

EPHEMERIS_TYPE = 0
CLASSIFICATION_TYPE = U
NORAD_CAT_ID   = 66801
ELEMENT_SET_NO = 999
REV_AT_EPOCH   = 259
BSTAR          = -.37360121E-2
MEAN_MOTION_DOT = -.135593E-1
MEAN_MOTION_DDOT = .53276585E-3

CCSDS_OMM_VERS = 2.0
CREATION_DATE  = 
ORIGINATOR     = 

OBJECT_NAME    = STARLINK-35604
OBJECT_ID      = 2025-278M
CENTER_NAME    = EARTH
REF_FRAME      = TEME
TIME_SYSTEM    = UTC
MEAN_ELEMENT_THEORY = SGP/SGP4

EPOCH          = 2025-12-10T12:00:02.999808
MEAN_MOTION    = 15.92752022
ECCENTRICITY   = .00018897
INCLINATION    = 42.9987
RA_OF_ASC_NODE = 265.9697
ARG_OF_PERICENTER = 263.3761
MEAN_ANOMALY   = 266.7397

EPHEMERIS_TYPE = 0
CLASSIFICATION_TYPE = U
NORAD_CAT_ID   = 66802
ELEMENT_SET_NO = 999
REV_AT_EPOCH   = 259
BSTAR          = -.36574079E-2
MEAN_MOTION_DOT = -.1306524E-1
MEAN_MOTION_DDOT = .49626119E-3

CCSDS_OMM_VERS = 2.0
CREATION_DATE  = 
ORIGINATOR     = 

OBJECT_NAME    = STARLINK-35565
OBJECT_ID      = 2025-278N
CENTER_NAME    = EARTH
REF_FRAME      = TEME
TIME_SYSTEM    = UTC
MEAN_ELEMENT_THEORY = SGP/SGP4

EPOCH          = 2025-12-10T12:00:02.999808
MEAN_MOTION    = 15.92863576
ECCENTRICITY   = .00019488
INCLINATION    = 42.9986
RA_OF_ASC_NODE = 265.9594
ARG_OF_PERICENTER = 263.7247
MEAN_ANOMALY   = 270.5083

EPHEMERIS_TYPE = 0
CLASSIFICATION_TYPE = U
NORAD_CAT_ID   = 66803
ELEMENT_SET_NO = 999
REV_AT_EPOCH   = 268
BSTAR          = -.37270771E-2
MEAN_MOTION_DOT = -.1338888E-1
MEAN_MOTION_DDOT = .51956393E-3

CCSDS_OMM_VERS = 2.0
CREATION_DATE  = 
ORIGINATOR     = 

OBJECT_NAME    = STARLINK-36038
OBJECT_ID      = 2025-278P
CENTER_NAME    = EARTH
REF_FRAME      = TEME
TIME_SYSTEM    = UTC
MEAN_ELEMENT_THEORY = SGP/SGP4

EPOCH          = 2025-12-10T12:00:02.999808
MEAN_MOTION    = 15.92904376
ECCENTRICITY   = .00018931
INCLINATION    = 42.9988
RA_OF_ASC_NODE = 265.9535
ARG_OF_PERICENTER = 268.0675
MEAN_ANOMALY   = 268.5211

EPHEMERIS_TYPE = 0
CLASSIFICATION_TYPE = U
NORAD_CAT_ID   = 66804
ELEMENT_SET_NO = 999
REV_AT_EPOCH   = 259
BSTAR          = -.36745853E-2
MEAN_MOTION_DOT = -.132303E-1
MEAN_MOTION_DDOT = .50855317E-3

CCSDS_OMM_VERS = 2.0
CREATION_DATE  = 
ORIGINATOR     = 

OBJECT_NAME    = STARLINK-36049
OBJECT_ID      = 2025-278Q
CENTER_NAME    = EARTH
REF_FRAME      = TEME
TIME_SYSTEM    = UTC
MEAN_ELEMENT_THEORY = SGP/SGP4

EPOCH          = 2025-12-10T12:00:02.999808
MEAN_MOTION    = 15.93012708
ECCENTRICITY   = .00019388
INCLINATION    = 42.9986
RA_OF_ASC_NODE = 265.9431
ARG_OF_PERICENTER = 265.1603
MEAN_ANOMALY   = 275.4375

EPHEMERIS_TYPE = 0
CLASSIFICATION_TYPE = U
NORAD_CAT_ID   = 66805
ELEMENT_SET_NO = 999
REV_AT_EPOCH   = 259
BSTAR          = -.37308784E-2
MEAN_MOTION_DOT = -.1350677E-1
MEAN_MOTION_DDOT = .52874202E-3

CCSDS_OMM_VERS = 2.0
CREATION_DATE  = 
ORIGINATOR     = 

OBJECT_NAME    = STARLINK-36069
OBJECT_ID      = 2025-278R
CENTER_NAME    = EARTH
REF_FRAME      = TEME
TIME_SYSTEM    = UTC
MEAN_ELEMENT_THEORY = SGP/SGP4

EPOCH          = 2025-12-10T12:00:02.999808
MEAN_MOTION    = 15.92963063
ECCENTRICITY   = .00019438
INCLINATION    = 42.9989
RA_OF_ASC_NODE = 265.9491
ARG_OF_PERICENTER = 267.2334
MEAN_ANOMALY   = 271.0926

EPHEMERIS_TYPE = 0
CLASSIFICATION_TYPE = U
NORAD_CAT_ID   = 66806
ELEMENT_SET_NO = 999
REV_AT_EPOCH   = 238
BSTAR          = -.37459656E-2
MEAN_MOTION_DOT = -.1352578E-1
MEAN_MOTION_DDOT = .52984821E-3

CCSDS_OMM_VERS = 2.0
CREATION_DATE  = 
ORIGINATOR     = 

OBJECT_NAME    = STARLINK-36000
OBJECT_ID      = 2025-278S
CENTER_NAME    = EARTH
REF_FRAME      = TEME
TIME_SYSTEM    = UTC
MEAN_ELEMENT_THEORY = SGP/SGP4

EPOCH          = 2025-12-10T12:00:02.999808
MEAN_MOTION    = 15.93105764
ECCENTRICITY   = .00019529
INCLINATION    = 42.9987
RA_OF_ASC_NODE = 265.9329
ARG_OF_PERICENTER = 265.2605
MEAN_ANOMALY   = 279.4598

EPHEMERIS_TYPE = 0
CLASSIFICATION_TYPE = U
NORAD_CAT_ID   = 66807
ELEMENT_SET_NO = 999
REV_AT_EPOCH   = 265
BSTAR          = -.37137316E-2
MEAN_MOTION_DOT = -.1351078E-1
MEAN_MOTION_DDOT = .52951143E-3

