STARLINK-35964          
1 66796U 25278F   25344.50003472 -.01274001  55193-3 -15786-2 0  9999
2 66796  42.9968 265.4876 0002154 266.1916  92.8735 16.06931937  2433
STARLINK-36099          
1 66797U 25278G   25344.50003472 -.01295106  48771-3 -36510-2 0  9991
2 66797  42.9988 265.9843 0001934 265.3236 259.0392 15.92615926  2657
STARLINK-36041          
1 66798U 25278H   25344.50003472 -.01307366  49643-3 -36764-2 0  9994
2 66798  42.9988 265.9797 0001865 262.6359 263.5435 15.92665669  2438
STARLINK-36044          
1 66799U 25278J   25344.50003472 -.01298426  49043-3 -36432-2 0  9997
2 66799  42.9987 265.9746 0001918 266.1993 262.0507 15.92706098  2597
STARLINK-35996          
1 66800U 25278K   25344.50003472 -.01319160  50536-3 -36820-2 0  9999
2 66800  42.9985 265.9639 0001927 268.0121 264.3563 15.92809346  2387
STARLINK-36080          
1 66801U 25278L   25344.50003472 -.01355930  53277-3 -37360-2 0  9990
2 66801  42.9984 265.9376 0001962 266.0065 276.6526 15.93061030  2598
STARLINK-35604          
1 66802U 25278M   25344.50003472 -.01306524  49626-3 -36574-2 0  9995
2 66802  42.9987 265.9697 0001889 263.3761 266.7397 15.92752022  2592
STARLINK-35565          
1 66803U 25278N   25344.50003472 -.01338888  51956-3 -37271-2 0  9998
2 66803  42.9986 265.9594 0001948 263.7247 270.5083 15.92863576  2689
STARLINK-36038          
1 66804U 25278P   25344.50003472 -.01323030  50855-3 -36746-2 0  9995
2 66804  42.9988 265.9535 0001893 268.0675 268.5211 15.92904376  2593
STARLINK-36049          
1 66805U 25278Q   25344.50003472 -.01350677  52874-3 -37309-2 0  9992
2 66805  42.9986 265.9431 0001938 265.1603 275.4375 15.93012708  2594
STARLINK-36069          
1 66806U 25278R   25344.50003472 -.01352578  52985-3 -37460-2 0  9996
2 66806  42.9989 265.9491 0001943 267.2334 271.0926 15.92963063  2383
STARLINK-36000          
1 66807U 25278S   25344.50003472 -.01351078  52951-3 -37137-2 0  9995
2 66807  42.9987 265.9329 0001952 265.2605 279.4598 15.93105764  2655
